NORAD_CAT_ID,OBJECT_NAME,OBJECT_TYPE,EPOCH,MEAN_MOTION,ECCENTRICITY,INCLINATION,RA_OF_ASC_NODE,ARG_OF_PERICENTER,MEAN_ANOMALY,BSTAR,MEAN_MOTION_DOT,MEAN_MOTION_DDOT,TLE_LINE0,TLE_LINE1,TLE_LINE2,SEMIMAJOR_AXIS,PERIOD,APOGEE,PERIGEE,DECAYED
52359.0,STARLINK-3853,PAYLOAD,2023-04-24 09:01:48,15.08865264,0.0001188,53.2174,234.1706,95.6282,264.4846,0.00038301,5.817e-05,0.0,0 STARLINK-3853,1 52359U 22045AE  23114.37625440  .00005817  00000-0  38301-3 0  9998,2 52359  53.2174 234.1706 0001188  95.6282 264.4846 15.08865264 57226,6917.803,95.436,540.49,538.846,0.0
52359.0,STARLINK-3853,PAYLOAD,2023-04-24 16:58:42,15.08889445,0.0001003,53.216,232.681,92.3044,267.8063,0.00059978,9.283e-05,0.0,0 STARLINK-3853,1 52359U 22045AE  23114.70743411  .00009283  00000-0  59978-3 0  9998,2 52359  53.2160 232.6810 0001003  92.3044 267.8063 15.08889445 57276,6917.729,95.434,540.288,538.9,0.0
52359.0,STARLINK-3853,PAYLOAD,2023-04-25 07:17:13,15.08823508,0.0001274,53.2175,230.008,102.348,257.7655,-0.00012487,-2.274e-05,0.0,0 STARLINK-3853,1 52359U 22045AE  23115.30362793 -.00002274  00000-0 -12487-3 0  9994,2 52359  53.2175 230.0080 0001274 102.3480 257.7655 15.08823508 57362,6917.931,95.439,540.677,538.914,0.0
52359.0,STARLINK-3853,PAYLOAD,2023-04-26 11:54:10,15.08825664,7.47e-05,53.2178,224.6555,101.8397,258.2679,-0.00021393,-3.689e-05,0.0,0 STARLINK-3853,1 52359U 22045AE  23116.49595985 -.00003689  00000-0 -21393-3 0  9993,2 52359  53.2178 224.6555 0000747 101.8397 258.2679 15.08825664 57543,6917.924,95.438,540.306,539.272,0.0
52359.0,STARLINK-3853,PAYLOAD,2023-04-26 16:40:19,15.08850852,0.0001176,53.2158,223.7582,115.6742,244.4371,-0.00020212,-3.504e-05,0.0,0 STARLINK-3853,1 52359U 22045AE  23116.69467102 -.00003504  00000-0 -20212-3 0  9999,2 52359  53.2158 223.7582 0001176 115.6742 244.4371 15.08850852 57571,6917.847,95.437,540.526,538.899,0.0
52359.0,STARLINK-3853,PAYLOAD,2023-04-27 11:44:57,15.08835434,0.0001374,53.2168,220.1906,127.7658,232.3459,0.00045973,7.035e-05,0.0,0 STARLINK-3853,1 52359U 22045AE  23117.48955408  .00007035  00000-0  45973-3 0  9990,2 52359  53.2168 220.1906 0001374 127.7658 232.3459 15.08835434 57698,6917.894,95.438,540.71,538.809,0.0
52359.0,STARLINK-3853,PAYLOAD,2023-04-27 18:06:29,15.08857791,0.0001002,53.217,219.0026,119.2376,240.8716,0.0007069,0.00010986,0.0,0 STARLINK-3853,1 52359U 22045AE  23117.75451284  .00010986  00000-0  70690-3 0  9996,2 52359  53.2170 219.0026 0001002 119.2376 240.8716 15.08857791 57737,6917.826,95.436,540.384,538.998,0.0
52359.0,STARLINK-3853,PAYLOAD,2023-04-28 06:49:35,15.08847149,7.89e-05,53.2183,216.6298,75.5353,284.5727,0.00021611,3.154e-05,0.0,0 STARLINK-3853,1 52359U 22045AE  23118.28443678  .00003154  00000-0  21611-3 0  9991,2 52359  53.2183 216.6298 0000789  75.5353 284.5727 15.08847149 57817,6917.859,95.437,540.269,539.178,0.0
52359.0,STARLINK-3853,PAYLOAD,2023-04-28 13:11:07,15.08855881,8.23e-05,53.2174,215.4404,86.5059,273.6027,0.00030389,4.554e-05,0.0,0 STARLINK-3853,1 52359U 22045AE  23118.54939148  .00004554  00000-0  30389-3 0  9999,2 52359  53.2174 215.4404 0000823  86.5059 273.6027 15.08855881 57855,6917.832,95.437,540.266,539.128,0.0
52359.0,STARLINK-3853,PAYLOAD,2023-04-29 11:26:31,15.08845648,0.0001246,53.2158,211.2722,95.1122,265.0013,-1.1637e-05,-4.73e-06,0.0,0 STARLINK-3853,1 52359U 22045AE  23119.47675097 -.00000473  00000-0 -11637-4 0  9996,2 52359  53.2158 211.2722 0001246  95.1122 265.0013 15.08845648 57996,6917.863,95.437,540.59,538.866,0.0
52359.0,STARLINK-3853,PAYLOAD,2023-04-30 11:17:18,15.08843751,0.0001235,53.217,206.8139,87.6122,272.5012,9.919e-05,1.291e-05,0.0,0 STARLINK-3853,1 52359U 22045AE  23120.47035235  .00001291  00000-0  99190-4 0  9999,2 52359  53.2170 206.8139 0001235  87.6122 272.5012 15.08843751 58149,6917.869,95.437,540.588,538.88,0.0
52359.0,STARLINK-3853,PAYLOAD,2023-04-30 14:28:04,15.0884577,0.0001261,53.2171,206.2198,87.8549,272.2587,0.00016026,2.264e-05,0.0,0 STARLINK-3853,1 52359U 22045AE  23120.60283158  .00002264  00000-0  16026-3 0  9990,2 52359  53.2171 206.2198 0001261  87.8549 272.2587 15.08845770 58162,6917.863,95.437,540.6,538.855,0.0
52359.0,STARLINK-3853,PAYLOAD,2023-05-01 12:43:29,15.08838028,0.0001187,53.2163,202.0531,85.1011,275.0117,0.00012104,1.639e-05,0.0,0 STARLINK-3853,1 52359U 22045AE  23121.53019760  .00001639  00000-0  12104-3 0  9997,2 52359  53.2163 202.0531 0001187  85.1011 275.0117 15.08838028 58304,6917.886,95.438,540.573,538.93,0.0
52359.0,STARLINK-3853,PAYLOAD,2023-05-01 14:18:52,15.08840957,0.0001199,53.216,201.7558,90.7892,269.3237,0.00018175,2.606e-05,0.0,0 STARLINK-3853,1 52359U 22045AE  23121.59643676  .00002606  00000-0  18175-3 0  9991,2 52359  53.2160 201.7558 0001199  90.7892 269.3237 15.08840957 58312,6917.877,95.437,540.572,538.913,0.0
52359.0,STARLINK-3853,PAYLOAD,2023-05-02 12:34:15,15.08852807,0.0001228,53.2155,197.593,88.1009,272.0123,0.00058907,9.103e-05,0.0,0 STARLINK-3853,1 52359U 22045AE  23122.52379474  .00009103  00000-0  58907-3 0  9993,2 52359  53.2155 197.5930 0001228  88.1009 272.0123 15.08852807 58453,6917.841,95.437,540.556,538.857,0.0
52359.0,STARLINK-3853,PAYLOAD,2023-05-02 14:09:38,15.08856703,0.0001227,53.2156,197.2959,87.7975,272.3157,0.00068675,0.00010664,0.0,0 STARLINK-3853,1 52359U 22045AE  23122.59003366  .00010664  00000-0  68675-3 0  9991,2 52359  53.2156 197.2959 0001227  87.7975 272.3157 15.08856703 58468,6917.829,95.436,540.543,538.846,0.0
52359.0,STARLINK-3853,PAYLOAD,2023-05-02 22:06:34,15.08848059,0.000119,53.2163,195.8092,92.6692,267.4436,0.00035144,5.311e-05,0.0,0 STARLINK-3853,1 52359U 22045AE  23122.92123439  .00005311  00000-0  35144-3 0  9990,2 52359  53.2163 195.8092 0001190  92.6692 267.4436 15.08848059 58514,6917.856,95.437,540.544,538.898,0.0
52359.0,STARLINK-3853,PAYLOAD,2023-05-03 12:25:03,15.08837284,0.0001326,53.2159,193.1336,87.6545,272.4599,4.9975e-05,5.07e-06,0.0,0 STARLINK-3853,1 52359U 22045AE  23123.51740044  .00000507  00000-0  49975-4 0  9993,2 52359  53.2159 193.1336 0001326  87.6545 272.4599 15.08837284 58607,6917.889,95.438,540.671,538.836,0.0
52359.0,STARLINK-3853,PAYLOAD,2023-05-03 14:00:26,15.08839988,0.0001252,53.2162,192.8363,90.0008,270.1128,8.7096e-05,1.099e-05,0.0,0 STARLINK-3853,1 52359U 22045AE  23123.58363896  .00001099  00000-0  87096-4 0  9999,2 52359  53.2162 192.8363 0001252  90.0008 270.1128 15.08839988 58614,6917.88,95.438,540.612,538.879,0.0
52359.0,STARLINK-3853,PAYLOAD,2023-05-04 10:40:27,15.08842885,0.0001291,53.2163,188.9718,87.5663,272.5477,3.2036e-05,2.22e-06,0.0,0 STARLINK-3853,1 52359U 22045AE  23124.44475894  .00000222  00000-0  32036-4 0  9998,2 52359  53.2163 188.9718 0001291  87.5663 272.5477 15.08842885 58743,6917.872,95.437,540.63,538.843,0.0
52359.0,STARLINK-3853,PAYLOAD,2023-05-04 21:48:09,15.08839733,0.000124,53.2161,186.8888,85.4259,274.6874,3.7365e-05,3.07e-06,0.0,0 STARLINK-3853,1 52359U 22045AE  23124.90844024  .00000307  00000-0  37365-4 0  9998,2 52359  53.2161 186.8888 0001240  85.4259 274.6874 15.08839733 58818,6917.881,95.438,540.604,538.888,0.0
52359.0,STARLINK-3853,PAYLOAD,2023-05-05 13:42:00,15.08846679,0.0001206,53.2158,183.9148,87.2342,272.8788,0.00019952,2.889e-05,0.0,0 STARLINK-3853,1 52359U 22045AE  23125.57083775  .00002889  00000-0  19952-3 0  9998,2 52359  53.2158 183.9148 0001206  87.2342 272.8788 15.08846679 58918,6917.86,95.437,540.559,538.891,0.0
52359.0,STARLINK-3853,PAYLOAD,2023-05-06 07:11:15,15.08840711,0.0001319,53.2155,180.6414,104.3451,255.7688,6.3979e-05,7.3e-06,0.0,0 STARLINK-3853,1 52359U 22045AE  23126.29948105  .00000730  00000-0  63979-4 0  9997,2 52359  53.2155 180.6414 0001319 104.3451 255.7688 15.08840711 59025,6917.878,95.438,540.656,538.831,0.0
52359.0,STARLINK-3853,PAYLOAD,2023-05-07 03:51:15,15.08846019,9.66e-05,53.2149,176.7775,84.0013,276.1089,0.00017846,2.554e-05,0.0,0 STARLINK-3853,1 52359U 22045AE  23127.16059832  .00002554  00000-0  17846-3 0  9991,2 52359  53.2149 176.7775 0000966  84.0013 276.1089 15.08846019 59152,6917.862,95.437,540.395,539.059,0.0
52359.0,STARLINK-3853,PAYLOAD,2023-05-07 10:12:47,15.08852895,0.0001013,53.2151,175.5881,92.3308,267.78,0.00018036,2.585e-05,0.0,0 STARLINK-3853,1 52359U 22045AE  23127.42555404  .00002585  00000-0  18036-3 0  9992,2 52359  53.2151 175.5881 0001013  92.3308 267.7800 15.08852895 59193,6917.841,95.437,540.407,539.005,0.0
52359.0,STARLINK-3853,PAYLOAD,2023-05-07 19:45:06,15.08850384,0.0001017,53.2145,173.803,78.8243,281.2864,0.00013337,1.836e-05,0.0,0 STARLINK-3853,1 52359U 22045AE  23127.82299397  .00001836  00000-0  13337-3 0  9999,2 52359  53.2145 173.8030 0001017  78.8243 281.2864 15.08850384 59253,6917.849,95.437,540.417,539.01,0.0
52359.0,STARLINK-3853,PAYLOAD,2023-05-08 11:38:59,15.08831813,0.0001556,53.2163,170.8341,114.2515,245.8639,-5.1613e-05,-1.109e-05,0.0,0 STARLINK-3853,1 52359U 22045AE  23128.48540512 -.00001109  00000-0 -51613-4 0  9995,2 52359  53.2163 170.8341 0001556 114.2515 245.8639 15.08831813 59353,6917.905,95.438,540.847,538.694,0.0
52359.0,STARLINK-3853,PAYLOAD,2023-05-08 19:35:54,15.08837892,0.0001295,53.216,169.3456,98.8548,261.2591,-2.897e-06,-3.34e-06,0.0,0 STARLINK-3853,1 52359U 22045AE  23128.81660339 -.00000334  00000-0 -28970-5 0  9992,2 52359  53.2160 169.3456 0001295  98.8548 261.2591 15.08837892 59401,6917.887,95.438,540.648,538.856,0.0
52359.0,STARLINK-3853,PAYLOAD,2023-05-09 11:29:45,15.08848946,0.0001867,53.2161,166.373,108.1281,251.9915,4.8123e-05,4.78e-06,0.0,0 STARLINK-3853,1 52359U 22045AE  23129.47899802  .00000478  00000-0  48123-4 0  9992,2 52359  53.2161 166.3730 0001867 108.1281 251.9915 15.08848946 59507,6917.853,95.437,541.01,538.426,0.0
52359.0,STARLINK-3853,PAYLOAD,2023-05-10 09:45:10,15.08839112,0.0001338,53.2149,162.2076,92.1519,267.9626,0.00016908,2.404e-05,0.0,0 STARLINK-3853,1 52359U 22045AE  23130.40636670  .00002404  00000-0  16908-3 0  9995,2 52359  53.2149 162.2076 0001338  92.1519 267.9626 15.08839112 59646,6917.883,95.438,540.674,538.822,0.0
